STARLINK-37268          
1 68747U 26082V   26113.54255131 -.00923883  00000+0 -45126-2 0  9993
2 68747  97.2880 335.6891 0002693 350.6870   9.4349 15.84454427  1185
