{
  "norad_id": 68747,
  "name": "STARLINK-37268",
  "history": [
    {
      "epoch": "2026-04-23T13:01:16.433184Z",
      "apogee_km": 319.66474461869893,
      "perigee_km": 316.0580120521927,
      "latitude_deg": -6.809102932100921e-05,
      "longitude_deg": -71.2176472929231,
      "height_km": 319.2626371095281,
      "semi_major_axis_km": 6695.9983783354455,
      "eccentricity": 0.00026932,
      "inclination_deg": 97.288,
      "raan_deg": 335.6891,
      "arg_perigee_deg": 350.687,
      "mean_anomaly_deg": 9.4349,
      "mean_motion_rev_day": 15.84454427
    }
  ]
}